{
  "type": "FeatureCollection",
  "features": [
    {
      "type": "Feature",
      "properties": {
        "id": "02",
        "nombre": "Ciudad Autónoma de Buenos Aires",
        "name": "Ciudad Autónoma de Buenos Aires",
        "fuente": "IGN",
        "categoria": "Ciudad Autónoma",
        "centroide": {
          "lon": -58.44,
          "lat": -34.61
        },
        "iso_id": "AR-02"
      },
      "geometry": {
        "type": "Polygon",
        "coordinates": [
          [
            [
              -59.239999999999995,
              -35.41
            ],
            [
              -57.64,
              -35.41
            ],
            [
              -57.64,
              -33.81
            ],
            [
              -59.239999999999995,
              -33.81
            ],
            [
              -59.239999999999995,
              -35.41
            ]
          ]
        ]
      }
    },
    {
      "type": "Feature",
      "properties": {
        "id": "06",
        "nombre": "Buenos Aires",
        "name": "Buenos Aires",
        "fuente": "IGN",
        "categoria": "Provincia",
        "centroide": {
          "lon": -60.0,
          "lat": -36.5
        },
        "iso_id": "AR-06"
      },
      "geometry": {
        "type": "Polygon",
        "coordinates": [
          [
            [
              -60.8,
              -37.3
            ],
            [
              -59.2,
              -37.3
            ],
            [
              -59.2,
              -35.7
            ],
            [
              -60.8,
              -35.7
            ],
            [
              -60.8,
              -37.3
            ]
          ]
        ]
      }
    },
    {
      "type": "Feature",
      "properties": {
        "id": "10",
        "nombre": "Catamarca",
        "name": "Catamarca",
        "fuente": "IGN",
        "categoria": "Provincia",
        "centroide": {
          "lon": -67.0,
          "lat": -27.5
        },
        "iso_id": "AR-10"
      },
      "geometry": {
        "type": "Polygon",
        "coordinates": [
          [
            [
              -67.8,
              -28.3
            ],
            [
              -66.2,
              -28.3
            ],
            [
              -66.2,
              -26.7
            ],
            [
              -67.8,
              -26.7
            ],
            [
              -67.8,
              -28.3
            ]
          ]
        ]
      }
    },
    {
      "type": "Feature",
      "properties": {
        "id": "14",
        "nombre": "Chaco",
        "name": "Chaco",
        "fuente": "IGN",
        "categoria": "Provincia",
        "centroide": {
          "lon": -60.0,
          "lat": -26.0
        },
        "iso_id": "AR-14"
      },
      "geometry": {
        "type": "Polygon",
        "coordinates": [
          [
            [
              -60.8,
              -26.8
            ],
            [
              -59.2,
              -26.8
            ],
            [
              -59.2,
              -25.2
            ],
            [
              -60.8,
              -25.2
            ],
            [
              -60.8,
              -26.8
            ]
          ]
        ]
      }
    },
    {
      "type": "Feature",
      "properties": {
        "id": "18",
        "nombre": "Chubut",
        "name": "Chubut",
        "fuente": "IGN",
        "categoria": "Provincia",
        "centroide": {
          "lon": -68.5,
          "lat": -43.5
        },
        "iso_id": "AR-18"
      },
      "geometry": {
        "type": "Polygon",
        "coordinates": [
          [
            [
              -69.3,
              -44.3
            ],
            [
              -67.7,
              -44.3
            ],
            [
              -67.7,
              -42.7
            ],
            [
              -69.3,
              -42.7
            ],
            [
              -69.3,
              -44.3
            ]
          ]
        ]
      }
    },
    {
      "type": "Feature",
      "properties": {
        "id": "22",
        "nombre": "Córdoba",
        "name": "Córdoba",
        "fuente": "IGN",
        "categoria": "Provincia",
        "centroide": {
          "lon": -63.5,
          "lat": -32.0
        },
        "iso_id": "AR-22"
      },
      "geometry": {
        "type": "Polygon",
        "coordinates": [
          [
            [
              -64.3,
              -32.8
            ],
            [
              -62.7,
              -32.8
            ],
            [
              -62.7,
              -31.2
            ],
            [
              -64.3,
              -31.2
            ],
            [
              -64.3,
              -32.8
            ]
          ]
        ]
      }
    },
    {
      "type": "Feature",
      "properties": {
        "id": "26",
        "nombre": "Corrientes",
        "name": "Corrientes",
        "fuente": "IGN",
        "categoria": "Provincia",
        "centroide": {
          "lon": -58.5,
          "lat": -28.5
        },
        "iso_id": "AR-26"
      },
      "geometry": {
        "type": "Polygon",
        "coordinates": [
          [
            [
              -59.3,
              -29.3
            ],
            [
              -57.7,
              -29.3
            ],
            [
              -57.7,
              -27.7
            ],
            [
              -59.3,
              -27.7
            ],
            [
              -59.3,
              -29.3
            ]
          ]
        ]
      }
    },
    {
      "type": "Feature",
      "properties": {
        "id": "30",
        "nombre": "Entre Ríos",
        "name": "Entre Ríos",
        "fuente": "IGN",
        "categoria": "Provincia",
        "centroide": {
          "lon": -59.0,
          "lat": -32.0
        },
        "iso_id": "AR-30"
      },
      "geometry": {
        "type": "Polygon",
        "coordinates": [
          [
            [
              -59.8,
              -32.8
            ],
            [
              -58.2,
              -32.8
            ],
            [
              -58.2,
              -31.2
            ],
            [
              -59.8,
              -31.2
            ],
            [
              -59.8,
              -32.8
            ]
          ]
        ]
      }
    },
    {
      "type": "Feature",
      "properties": {
        "id": "34",
        "nombre": "Formosa",
        "name": "Formosa",
        "fuente": "IGN",
        "categoria": "Provincia",
        "centroide": {
          "lon": -60.0,
          "lat": -25.0
        },
        "iso_id": "AR-34"
      },
      "geometry": {
        "type": "Polygon",
        "coordinates": [
          [
            [
              -60.8,
              -25.8
            ],
            [
              -59.2,
              -25.8
            ],
            [
              -59.2,
              -24.2
            ],
            [
              -60.8,
              -24.2
            ],
            [
              -60.8,
              -25.8
            ]
          ]
        ]
      }
    },
    {
      "type": "Feature",
      "properties": {
        "id": "38",
        "nombre": "Jujuy",
        "name": "Jujuy",
        "fuente": "IGN",
        "categoria": "Provincia",
        "centroide": {
          "lon": -65.5,
          "lat": -23.5
        },
        "iso_id": "AR-38"
      },
      "geometry": {
        "type": "Polygon",
        "coordinates": [
          [
            [
              -66.3,
              -24.3
            ],
            [
              -64.7,
              -24.3
            ],
            [
              -64.7,
              -22.7
            ],
            [
              -66.3,
              -22.7
            ],
            [
              -66.3,
              -24.3
            ]
          ]
        ]
      }
    },
    {
      "type": "Feature",
      "properties": {
        "id": "42",
        "nombre": "La Pampa",
        "name": "La Pampa",
        "fuente": "IGN",
        "categoria": "Provincia",
        "centroide": {
          "lon": -65.0,
          "lat": -37.0
        },
        "iso_id": "AR-42"
      },
      "geometry": {
        "type": "Polygon",
        "coordinates": [
          [
            [
              -65.8,
              -37.8
            ],
            [
              -64.2,
              -37.8
            ],
            [
              -64.2,
              -36.2
            ],
            [
              -65.8,
              -36.2
            ],
            [
              -65.8,
              -37.8
            ]
          ]
        ]
      }
    },
    {
      "type": "Feature",
      "properties": {
        "id": "46",
        "nombre": "La Rioja",
        "name": "La Rioja",
        "fuente": "IGN",
        "categoria": "Provincia",
        "centroide": {
          "lon": -67.0,
          "lat": -30.0
        },
        "iso_id": "AR-46"
      },
      "geometry": {
        "type": "Polygon",
        "coordinates": [
          [
            [
              -67.8,
              -30.8
            ],
            [
              -66.2,
              -30.8
            ],
            [
              -66.2,
              -29.2
            ],
            [
              -67.8,
              -29.2
            ],
            [
              -67.8,
              -30.8
            ]
          ]
        ]
      }
    },
    {
      "type": "Feature",
      "properties": {
        "id": "50",
        "nombre": "Mendoza",
        "name": "Mendoza",
        "fuente": "IGN",
        "categoria": "Provincia",
        "centroide": {
          "lon": -68.5,
          "lat": -33.5
        },
        "iso_id": "AR-50"
      },
      "geometry": {
        "type": "Polygon",
        "coordinates": [
          [
            [
              -69.3,
              -34.3
            ],
            [
              -67.7,
              -34.3
            ],
            [
              -67.7,
              -32.7
            ],
            [
              -69.3,
              -32.7
            ],
            [
              -69.3,
              -34.3
            ]
          ]
        ]
      }
    },
    {
      "type": "Feature",
      "properties": {
        "id": "54",
        "nombre": "Misiones",
        "name": "Misiones",
        "fuente": "IGN",
        "categoria": "Provincia",
        "centroide": {
          "lon": -54.5,
          "lat": -27.0
        },
        "iso_id": "AR-54"
      },
      "geometry": {
        "type": "Polygon",
        "coordinates": [
          [
            [
              -55.3,
              -27.8
            ],
            [
              -53.7,
              -27.8
            ],
            [
              -53.7,
              -26.2
            ],
            [
              -55.3,
              -26.2
            ],
            [
              -55.3,
              -27.8
            ]
          ]
        ]
      }
    },
    {
      "type": "Feature",
      "properties": {
        "id": "58",
        "nombre": "Neuquén",
        "name": "Neuquén",
        "fuente": "IGN",
        "categoria": "Provincia",
        "centroide": {
          "lon": -70.0,
          "lat": -38.5
        },
        "iso_id": "AR-58"
      },
      "geometry": {
        "type": "Polygon",
        "coordinates": [
          [
            [
              -70.8,
              -39.3
            ],
            [
              -69.2,
              -39.3
            ],
            [
              -69.2,
              -37.7
            ],
            [
              -70.8,
              -37.7
            ],
            [
              -70.8,
              -39.3
            ]
          ]
        ]
      }
    },
    {
      "type": "Feature",
      "properties": {
        "id": "62",
        "nombre": "Río Negro",
        "name": "Río Negro",
        "fuente": "IGN",
        "categoria": "Provincia",
        "centroide": {
          "lon": -67.0,
          "lat": -40.5
        },
        "iso_id": "AR-62"
      },
      "geometry": {
        "type": "Polygon",
        "coordinates": [
          [
            [
              -67.8,
              -41.3
            ],
            [
              -66.2,
              -41.3
            ],
            [
              -66.2,
              -39.7
            ],
            [
              -67.8,
              -39.7
            ],
            [
              -67.8,
              -41.3
            ]
          ]
        ]
      }
    },
    {
      "type": "Feature",
      "properties": {
        "id": "66",
        "nombre": "Salta",
        "name": "Salta",
        "fuente": "IGN",
        "categoria": "Provincia",
        "centroide": {
          "lon": -65.0,
          "lat": -25.0
        },
        "iso_id": "AR-66"
      },
      "geometry": {
        "type": "Polygon",
        "coordinates": [
          [
            [
              -65.8,
              -25.8
            ],
            [
              -64.2,
              -25.8
            ],
            [
              -64.2,
              -24.2
            ],
            [
              -65.8,
              -24.2
            ],
            [
              -65.8,
              -25.8
            ]
          ]
        ]
      }
    },
    {
      "type": "Feature",
      "properties": {
        "id": "70",
        "nombre": "San Juan",
        "name": "San Juan",
        "fuente": "IGN",
        "categoria": "Provincia",
        "centroide": {
          "lon": -68.5,
          "lat": -31.0
        },
        "iso_id": "AR-70"
      },
      "geometry": {
        "type": "Polygon",
        "coordinates": [
          [
            [
              -69.3,
              -31.8
            ],
            [
              -67.7,
              -31.8
            ],
            [
              -67.7,
              -30.2
            ],
            [
              -69.3,
              -30.2
            ],
            [
              -69.3,
              -31.8
            ]
          ]
        ]
      }
    },
    {
      "type": "Feature",
      "properties": {
        "id": "74",
        "nombre": "San Luis",
        "name": "San Luis",
        "fuente": "IGN",
        "categoria": "Provincia",
        "centroide": {
          "lon": -66.0,
          "lat": -33.5
        },
        "iso_id": "AR-74"
      },
      "geometry": {
        "type": "Polygon",
        "coordinates": [
          [
            [
              -66.8,
              -34.3
            ],
            [
              -65.2,
              -34.3
            ],
            [
              -65.2,
              -32.7
            ],
            [
              -66.8,
              -32.7
            ],
            [
              -66.8,
              -34.3
            ]
          ]
        ]
      }
    },
    {
      "type": "Feature",
      "properties": {
        "id": "78",
        "nombre": "Santa Cruz",
        "name": "Santa Cruz",
        "fuente": "IGN",
        "categoria": "Provincia",
        "centroide": {
          "lon": -70.0,
          "lat": -49.0
        },
        "iso_id": "AR-78"
      },
      "geometry": {
        "type": "Polygon",
        "coordinates": [
          [
            [
              -70.8,
              -49.8
            ],
            [
              -69.2,
              -49.8
            ],
            [
              -69.2,
              -48.2
            ],
            [
              -70.8,
              -48.2
            ],
            [
              -70.8,
              -49.8
            ]
          ]
        ]
      }
    },
    {
      "type": "Feature",
      "properties": {
        "id": "82",
        "nombre": "Santa Fe",
        "name": "Santa Fe",
        "fuente": "IGN",
        "categoria": "Provincia",
        "centroide": {
          "lon": -61.0,
          "lat": -31.0
        },
        "iso_id": "AR-82"
      },
      "geometry": {
        "type": "Polygon",
        "coordinates": [
          [
            [
              -61.8,
              -31.8
            ],
            [
              -60.2,
              -31.8
            ],
            [
              -60.2,
              -30.2
            ],
            [
              -61.8,
              -30.2
            ],
            [
              -61.8,
              -31.8
            ]
          ]
        ]
      }
    },
    {
      "type": "Feature",
      "properties": {
        "id": "86",
        "nombre": "Santiago del Estero",
        "name": "Santiago del Estero",
        "fuente": "IGN",
        "categoria": "Provincia",
        "centroide": {
          "lon": -63.5,
          "lat": -28.0
        },
        "iso_id": "AR-86"
      },
      "geometry": {
        "type": "Polygon",
        "coordinates": [
          [
            [
              -64.3,
              -28.8
            ],
            [
              -62.7,
              -28.8
            ],
            [
              -62.7,
              -27.2
            ],
            [
              -64.3,
              -27.2
            ],
            [
              -64.3,
              -28.8
            ]
          ]
        ]
      }
    },
    {
      "type": "Feature",
      "properties": {
        "id": "90",
        "nombre": "Tierra del Fuego",
        "name": "Tierra del Fuego",
        "fuente": "IGN",
        "categoria": "Provincia",
        "centroide": {
          "lon": -68.0,
          "lat": -54.0
        },
        "iso_id": "AR-90"
      },
      "geometry": {
        "type": "Polygon",
        "coordinates": [
          [
            [
              -68.8,
              -54.8
            ],
            [
              -67.2,
              -54.8
            ],
            [
              -67.2,
              -53.2
            ],
            [
              -68.8,
              -53.2
            ],
            [
              -68.8,
              -54.8
            ]
          ]
        ]
      }
    },
    {
      "type": "Feature",
      "properties": {
        "id": "94",
        "nombre": "Tucumán",
        "name": "Tucumán",
        "fuente": "IGN",
        "categoria": "Provincia",
        "centroide": {
          "lon": -65.0,
          "lat": -27.0
        },
        "iso_id": "AR-94"
      },
      "geometry": {
        "type": "Polygon",
        "coordinates": [
          [
            [
              -65.8,
              -27.8
            ],
            [
              -64.2,
              -27.8
            ],
            [
              -64.2,
              -26.2
            ],
            [
              -65.8,
              -26.2
            ],
            [
              -65.8,
              -27.8
            ]
          ]
        ]
      }
    }
  ]
}